
[c2018v1(machholzfujikawaiwamoto)]
orbit_PericenterDistance = 0.385952
absolute_magnitude = 14.8
type = comet
coord_func = comet_orbit
dust_brightnessfactor = 1.5
dust_lengthfactor = 0.4
radius = 5
name = C/2018 V1 (Machholz-Fujikawa-Iwamoto)
orbit_Inclination = 144.0538
orbit_AscendingNode = 128.8793
slope_parameter = 4
albedo = 0.1
orbit_good = 1000
dust_widthfactor = 1.5
orbit_Eccentricity = 1.000367
orbit_ArgOfPericenter = 88.8371
orbit_TimeAtPericenter = 2458455.863888889

[c2018v2(atlas)]
orbit_PericenterDistance = 2.478535
absolute_magnitude = 15
type = comet
coord_func = comet_orbit
dust_lengthfactor = 0.4
radius = 5
name = C/2018 V2 (ATLAS)
orbit_Inclination = 159.1637
dust_brightnessfactor = 1.5
orbit_AscendingNode = 357.0513
slope_parameter = 4
orbit_visualization_period = 46361.95691230419
albedo = 0.1
orbit_good = 1000
dust_widthfactor = 1.5
orbit_Eccentricity = 0.901866
orbit_ArgOfPericenter = 318.9566
orbit_TimeAtPericenter = 2458449.0573958335

[a2018v3]
orbit_PericenterDistance = 1.339955
absolute_magnitude = 15.7
type = comet
coord_func = comet_orbit
dust_lengthfactor = 0.4
radius = 5
name = A/2018 V3
orbit_Inclination = 164.978
dust_brightnessfactor = 1.5
orbit_AscendingNode = 308.6568
slope_parameter = 2
orbit_visualization_period = 487675.9952017249
albedo = 0.1
orbit_good = 1000
dust_widthfactor = 1.5
orbit_Eccentricity = 0.988949
orbit_ArgOfPericenter = 3.5097
orbit_TimeAtPericenter = 2458735.1784953703

[c2018v4(africano)]
orbit_PericenterDistance = 3.197685
absolute_magnitude = 12.5
type = comet
coord_func = comet_orbit
dust_lengthfactor = 0.4
radius = 5
name = C/2018 V4 (Africano)
orbit_Inclination = 69.003
dust_brightnessfactor = 1.5
orbit_AscendingNode = 78.3704
slope_parameter = 4
orbit_visualization_period = 1090432.1773990258
albedo = 0.1
orbit_good = 1000
dust_widthfactor = 1.5
orbit_Eccentricity = 0.984577
orbit_ArgOfPericenter = 359.953
orbit_TimeAtPericenter = 2458543.9567939816

[p2018v5(trujillosheppard)]
orbit_PericenterDistance = 4.704853
absolute_magnitude = 12.5
type = comet
coord_func = comet_orbit
dust_lengthfactor = 0.4
radius = 5
name = P/2018 V5 (Trujillo-Sheppard)
orbit_Inclination = 10.5846
dust_brightnessfactor = 1.5
orbit_AscendingNode = 171.2909
slope_parameter = 4
orbit_visualization_period = 9787.1529414223
albedo = 0.1
orbit_good = 1000
dust_widthfactor = 1.5
orbit_Eccentricity = 0.474579
orbit_ArgOfPericenter = 260.7033
orbit_TimeAtPericenter = 2458394.3398958333

[p2018vn2(leonard)]
orbit_PericenterDistance = 2.120302
absolute_magnitude = 15
type = comet
coord_func = comet_orbit
dust_lengthfactor = 0.4
radius = 5
name = P/2018 VN2 (Leonard)
orbit_Inclination = 18.248
dust_brightnessfactor = 1.5
orbit_AscendingNode = 226.521
slope_parameter = 4
orbit_visualization_period = 2993.375235752591
albedo = 0.1
orbit_good = 1000
dust_widthfactor = 1.5
orbit_Eccentricity = 0.478378
orbit_ArgOfPericenter = 138.7344
orbit_TimeAtPericenter = 2458275.071388889

[c2018w1(catalina)]
orbit_PericenterDistance = 1.360589
absolute_magnitude = 5.1
type = comet
coord_func = comet_orbit
dust_lengthfactor = 0.4
radius = 5
name = C/2018 W1 (Catalina)
orbit_Inclination = 83.2606
dust_brightnessfactor = 1.5
orbit_AscendingNode = 233.592
slope_parameter = 13.8
orbit_visualization_period = 37005.384816479585
albedo = 0.1
orbit_good = 1000
dust_widthfactor = 1.5
orbit_Eccentricity = 0.937394
orbit_ArgOfPericenter = 251.2519
orbit_TimeAtPericenter = 2458615.265

[c2018w2(africano)]
orbit_PericenterDistance = 1.454907
absolute_magnitude = 8.5
type = comet
coord_func = comet_orbit
dust_brightnessfactor = 1.5
dust_lengthfactor = 0.4
radius = 5
name = C/2018 W2 (Africano)
orbit_Inclination = 116.6169
orbit_AscendingNode = 181.8535
slope_parameter = 4.9
albedo = 0.1
orbit_good = 1000
dust_widthfactor = 1.5
orbit_Eccentricity = 1.000489
orbit_ArgOfPericenter = 157.9755
orbit_TimeAtPericenter = 2458732.1786921294

[c2018x2(fitzsimmons)]
orbit_PericenterDistance = 2.126443
absolute_magnitude = 9.6
type = comet
coord_func = comet_orbit
dust_lengthfactor = 0.4
radius = 5
name = C/2018 X2 (Fitzsimmons)
orbit_Inclination = 23.0694
dust_brightnessfactor = 1.5
orbit_AscendingNode = 340.8269
slope_parameter = 5.6
orbit_visualization_period = 663374.355183373
albedo = 0.1
orbit_good = 1000
dust_widthfactor = 1.5
orbit_Eccentricity = 0.985715
orbit_ArgOfPericenter = 162.0606
orbit_TimeAtPericenter = 2458672.9748958335

[c2018x3(panstarrs)]
orbit_PericenterDistance = 2.697015
absolute_magnitude = 14.5
type = comet
coord_func = comet_orbit
dust_lengthfactor = 0.4
radius = 5
name = C/2018 X3 (PANSTARRS)
orbit_Inclination = 43.37
dust_brightnessfactor = 1.5
orbit_AscendingNode = 78.9122
slope_parameter = 4
orbit_visualization_period = 15915.003818375266
albedo = 0.1
orbit_good = 1000
dust_widthfactor = 1.5
orbit_Eccentricity = 0.78219
orbit_ArgOfPericenter = 359.7676
orbit_TimeAtPericenter = 2458483.0856944444

[c2018y1(iwamoto)]
orbit_PericenterDistance = 1.285501
absolute_magnitude = 7.4
type = comet
coord_func = comet_orbit
dust_lengthfactor = 0.4
radius = 5
name = C/2018 Y1 (Iwamoto)
orbit_Inclination = 160.4005
dust_brightnessfactor = 1.5
orbit_AscendingNode = 147.5085
slope_parameter = 6.4
orbit_visualization_period = 617940.0161230923
albedo = 0.1
orbit_good = 1000
dust_widthfactor = 1.5
orbit_Eccentricity = 0.990946
orbit_ArgOfPericenter = 358.0315
orbit_TimeAtPericenter = 2458521.525289352

[p2018y2(africano)]
orbit_PericenterDistance = 3.891289
absolute_magnitude = 11.5
type = comet
coord_func = comet_orbit
dust_lengthfactor = 0.4
radius = 5
name = P/2018 Y2 (Africano)
orbit_Inclination = 11.6828
dust_brightnessfactor = 1.5
orbit_AscendingNode = 297.2666
slope_parameter = 4
orbit_visualization_period = 7448.341563176389
albedo = 0.1
orbit_good = 1000
dust_widthfactor = 1.5
orbit_Eccentricity = 0.478662
orbit_ArgOfPericenter = 162.3802
orbit_TimeAtPericenter = 2458485.362997685

[p2019a1(panstarrs)]
orbit_PericenterDistance = 2.211613
absolute_magnitude = 16
type = comet
coord_func = comet_orbit
dust_lengthfactor = 0.4
radius = 5
name = P/2019 A1 (PANSTARRS)
orbit_Inclination = 13.7442
dust_brightnessfactor = 1.5
orbit_AscendingNode = 312.3024
slope_parameter = 4
orbit_visualization_period = 4236.436797897475
albedo = 0.1
orbit_good = 1000
dust_widthfactor = 1.5
orbit_Eccentricity = 0.568374
orbit_ArgOfPericenter = 150.8034
orbit_TimeAtPericenter = 2458402.258599537

[p2019a2(atlas)]
orbit_PericenterDistance = 3.54111
absolute_magnitude = 10.5
type = comet
coord_func = comet_orbit
dust_lengthfactor = 0.4
radius = 5
name = P/2019 A2 (ATLAS)
orbit_Inclination = 14.8604
dust_brightnessfactor = 1.5
orbit_AscendingNode = 139.4674
slope_parameter = 4
orbit_visualization_period = 5002.20041681425
albedo = 0.1
orbit_good = 1000
dust_widthfactor = 1.5
orbit_Eccentricity = 0.38137
orbit_ArgOfPericenter = 324.0932
orbit_TimeAtPericenter = 2458443.196099537

[p2019a3(panstarrs)]
orbit_PericenterDistance = 2.311687
absolute_magnitude = 16
type = comet
coord_func = comet_orbit
dust_lengthfactor = 0.4
radius = 5
name = P/2019 A3 (PANSTARRS)
orbit_Inclination = 15.3662
dust_brightnessfactor = 1.5
orbit_AscendingNode = 31.306
slope_parameter = 4
orbit_visualization_period = 2039.1963329014877
albedo = 0.1
orbit_good = 1000
dust_widthfactor = 1.5
orbit_Eccentricity = 0.265449
orbit_ArgOfPericenter = 325.4862
orbit_TimeAtPericenter = 2458332.614895833

[p2019a4(panstarrs)]
orbit_PericenterDistance = 2.381607
absolute_magnitude = 15
type = comet
coord_func = comet_orbit
dust_lengthfactor = 0.4
radius = 5
name = P/2019 A4 (PANSTARRS)
orbit_Inclination = 13.321
dust_brightnessfactor = 1.5
orbit_AscendingNode = 119.2989
slope_parameter = 4
orbit_visualization_period = 1543.5989846654882
albedo = 0.1
orbit_good = 771
dust_widthfactor = 1.5
orbit_Eccentricity = 0.088872
orbit_ArgOfPericenter = 341.7455
orbit_TimeAtPericenter = 2458456.986099537

[c2019a5(panstarrs)]
orbit_PericenterDistance = 6.323243
absolute_magnitude = 9.5
type = comet
coord_func = comet_orbit
dust_lengthfactor = 0.4
radius = 5
name = C/2019 A5 (PANSTARRS)
orbit_Inclination = 67.5561
dust_brightnessfactor = 1.5
orbit_AscendingNode = 146.6249
slope_parameter = 4
orbit_visualization_period = 36662.375464083845
albedo = 0.1
orbit_good = 1000
dust_widthfactor = 1.5
orbit_Eccentricity = 0.707231
orbit_ArgOfPericenter = 355.9883
orbit_TimeAtPericenter = 2458643.302395833

[p2019a6(lemmonpanstarrs)]
orbit_PericenterDistance = 1.936696
absolute_magnitude = 16
type = comet
coord_func = comet_orbit
dust_lengthfactor = 0.4
radius = 5
name = P/2019 A6 (Lemmon-PANSTARRS)
orbit_Inclination = 33.23
dust_brightnessfactor = 1.5
orbit_AscendingNode = 280.2702
slope_parameter = 4
orbit_visualization_period = 4537.532401587708
albedo = 0.1
orbit_good = 1000
dust_widthfactor = 1.5
orbit_Eccentricity = 0.638939
orbit_ArgOfPericenter = 156.2242
orbit_TimeAtPericenter = 2458359.6383912037

[p2019a7(panstarrs)]
orbit_PericenterDistance = 2.672637
absolute_magnitude = 13.5
type = comet
coord_func = comet_orbit
dust_lengthfactor = 0.4
radius = 5
name = P/2019 A7 (PANSTARRS)
orbit_Inclination = 17.7745
dust_brightnessfactor = 1.5
orbit_AscendingNode = 280.5229
slope_parameter = 4
orbit_visualization_period = 2076.942451972436
albedo = 0.1
orbit_good = 1000
dust_widthfactor = 1.5
orbit_Eccentricity = 0.161076
orbit_ArgOfPericenter = 119.2815
orbit_TimeAtPericenter = 2458125.706388889

[p2019a8(panstarrs)]
orbit_PericenterDistance = 1.848939
absolute_magnitude = 16
type = comet
coord_func = comet_orbit
dust_lengthfactor = 0.4
radius = 5
name = P/2019 A8 (PANSTARRS)
orbit_Inclination = 3.054
dust_brightnessfactor = 1.5
orbit_AscendingNode = 127.5543
slope_parameter = 4
orbit_visualization_period = 2250.9079264564207
albedo = 0.1
orbit_good = 1000
dust_widthfactor = 1.5
orbit_Eccentricity = 0.449932
orbit_ArgOfPericenter = 22.266
orbit_TimeAtPericenter = 2458374.6930902777

